{
  "type": "FeatureCollection",
  "features": [
    {
      "type": "Feature",
      "properties": {
        "norad_id": 36585,
        "name": "GPS BIIF-1  (PRN 25)",
        "group": "gnss",
        "lat": 47.13016563522821,
        "lon": -14.480304817928442,
        "alt_km": 19962.141531587444,
        "timestamp": "2025-12-08T15:42:50.032627+00:00",
        "meta_object_name": "GPS BIIF-1  (PRN 25)",
        "meta_object_id": "2010-022A",
        "meta_epoch": "2025-12-08T05:43:48.381888",
        "meta_mean_motion": 2.00552915,
        "meta_eccentricity": 0.01259265,
        "meta_inclination": 54.3009,
        "meta_ra_of_asc_node": 216.2555,
        "meta_arg_of_pericenter": 65.0249,
        "meta_mean_anomaly": 109.07,
        "meta_ephemeris_type": 0,
        "meta_classification_type": "U",
        "meta_norad_cat_id": 36585,
        "meta_element_set_no": 999,
        "meta_rev_at_epoch": 11376,
        "meta_bstar": 0,
        "meta_mean_motion_dot": 2.3e-07,
        "meta_mean_motion_ddot": 0,
        "tle_line1": "1 36585U 10022A   25342.23875442  .00000023  00000+0  00000+0 0  9996",
        "tle_line2": "2 36585  54.3009 216.2555 0125926  65.0249 109.0700  2.00552915113761"
      },
      "geometry": {
        "type": "Point",
        "coordinates": [
          -14.480304817928442,
          47.13016563522821
        ]
      }
    },
    {
      "type": "Feature",
      "properties": {
        "norad_id": 36828,
        "name": "BEIDOU-2 IGSO-1 (C06)",
        "group": "gnss",
        "lat": -52.2173378837118,
        "lon": 53.00630996773476,
        "alt_km": 35627.38383085776,
        "timestamp": "2025-12-08T15:42:50.032639+00:00",
        "meta_object_name": "BEIDOU-2 IGSO-1 (C06)",
        "meta_object_id": "2010-036A",
        "meta_epoch": "2025-12-07T22:42:27.537984",
        "meta_mean_motion": 1.00277452,
        "meta_eccentricity": 0.00512392,
        "meta_inclination": 54.2867,
        "meta_ra_of_asc_node": 164.691,
        "meta_arg_of_pericenter": 215.8688,
        "meta_mean_anomaly": 144.8467,
        "meta_ephemeris_type": 0,
        "meta_classification_type": "U",
        "meta_norad_cat_id": 36828,
        "meta_element_set_no": 999,
        "meta_rev_at_epoch": 5618,
        "meta_bstar": 0,
        "meta_mean_motion_dot": -6.8e-07,
        "meta_mean_motion_ddot": 0,
        "tle_line1": "1 36828U 10036A   25341.94615206 -.00000068  00000+0  00000+0 0  9998",
        "tle_line2": "2 36828  54.2867 164.6910 0051239 215.8688 144.8467  1.00277452 56188"
      },
      "geometry": {
        "type": "Point",
        "coordinates": [
          53.00630996773476,
          -52.2173378837118
        ]
      }
    },
    {
      "type": "Feature",
      "properties": {
        "norad_id": 37210,
        "name": "BEIDOU-2 G4 (C04)",
        "group": "gnss",
        "lat": 2.199297434698985,
        "lon": 113.32722444692872,
        "alt_km": 35824.55493370381,
        "timestamp": "2025-12-08T15:42:50.032652+00:00",
        "meta_object_name": "BEIDOU-2 G4 (C04)",
        "meta_object_id": "2010-057A",
        "meta_epoch": "2025-12-08T05:48:19.884384",
        "meta_mean_motion": 1.00271476,
        "meta_eccentricity": 0.00109061,
        "meta_inclination": 3.1733,
        "meta_ra_of_asc_node": 69.9493,
        "meta_arg_of_pericenter": 190.2714,
        "meta_mean_anomaly": 64.1886,
        "meta_ephemeris_type": 0,
        "meta_classification_type": "U",
        "meta_norad_cat_id": 37210,
        "meta_element_set_no": 999,
        "meta_rev_at_epoch": 5537,
        "meta_bstar": 0,
        "meta_mean_motion_dot": -1.1e-06,
        "meta_mean_motion_ddot": 0,
        "tle_line1": "1 37210U 10057A   25342.24189681 -.00000110  00000+0  00000+0 0  9992",
        "tle_line2": "2 37210   3.1733  69.9493 0010906 190.2714  64.1886  1.00271476 55373"
      },
      "geometry": {
        "type": "Point",
        "coordinates": [
          113.32722444692872,
          2.199297434698985
        ]
      }
    },
    {
      "type": "Feature",
      "properties": {
        "norad_id": 37256,
        "name": "BEIDOU-2 IGSO-2 (C07)",
        "group": "gnss",
        "lat": 24.470003169453626,
        "lon": 69.92737215536523,
        "alt_km": 35707.229564657064,
        "timestamp": "2025-12-08T15:42:50.032665+00:00",
        "meta_object_name": "BEIDOU-2 IGSO-2 (C07)",
        "meta_object_id": "2010-068A",
        "meta_epoch": "2025-12-03T17:22:36.030432",
        "meta_mean_motion": 1.0028871,
        "meta_eccentricity": 0.00492335,
        "meta_inclination": 47.9043,
        "meta_ra_of_asc_node": 274.2613,
        "meta_arg_of_pericenter": 216.1442,
        "meta_mean_anomaly": 310.2369,
        "meta_ephemeris_type": 0,
        "meta_classification_type": "U",
        "meta_norad_cat_id": 37256,
        "meta_element_set_no": 999,
        "meta_rev_at_epoch": 5483,
        "meta_bstar": 0,
        "meta_mean_motion_dot": -2.25e-06,
        "meta_mean_motion_ddot": 0,
        "tle_line1": "1 37256U 10068A   25337.72402813 -.00000225  00000+0  00000+0 0  9993",
        "tle_line2": "2 37256  47.9043 274.2613 0049233 216.1442 310.2369  1.00288710 54839"
      },
      "geometry": {
        "type": "Point",
        "coordinates": [
          69.92737215536523,
          24.470003169453626
        ]
      }
    },
    {
      "type": "Feature",
      "properties": {
        "norad_id": 37384,
        "name": "BEIDOU-2 IGSO-3 (C08)",
        "group": "gnss",
        "lat": 16.626333047251336,
        "lon": 51.065484830235924,
        "alt_km": 35930.88060780587,
        "timestamp": "2025-12-08T15:42:50.032677+00:00",
        "meta_object_name": "BEIDOU-2 IGSO-3 (C08)",
        "meta_object_id": "2011-013A",
        "meta_epoch": "2025-12-07T14:00:04.361184",
        "meta_mean_motion": 1.00271436,
        "meta_eccentricity": 0.0035334,
        "meta_inclination": 62.1366,
        "meta_ra_of_asc_node": 41.9657,
        "meta_arg_of_pericenter": 187.0582,
        "meta_mean_anomaly": 165.2458,
        "meta_ephemeris_type": 0,
        "meta_classification_type": "U",
        "meta_norad_cat_id": 37384,
        "meta_element_set_no": 999,
        "meta_rev_at_epoch": 5373,
        "meta_bstar": 0,
        "meta_mean_motion_dot": -1.91e-06,
        "meta_mean_motion_ddot": 0,
        "tle_line1": "1 37384U 11013A   25341.58338381 -.00000191  00000+0  00000+0 0  9995",
        "tle_line2": "2 37384  62.1366  41.9657 0035334 187.0582 165.2458  1.00271436 53735"
      },
      "geometry": {
        "type": "Point",
        "coordinates": [
          51.065484830235924,
          16.626333047251336
        ]
      }
    },
    {
      "type": "Feature",
      "properties": {
        "norad_id": 37605,
        "name": "GSAT-8 (GAGAN/PRN 127)",
        "group": "gnss",
        "lat": -1.5788175735236507,
        "lon": 8.566781092421616,
        "alt_km": 35795.21805524694,
        "timestamp": "2025-12-08T15:42:50.032690+00:00",
        "meta_object_name": "GSAT-8 (GAGAN/PRN 127)",
        "meta_object_id": "2011-022A",
        "meta_epoch": "2025-12-08T03:35:32.601696",
        "meta_mean_motion": 1.00270857,
        "meta_eccentricity": 0.00089908,
        "meta_inclination": 1.6376,
        "meta_ra_of_asc_node": 84.2376,
        "meta_arg_of_pericenter": 181.0863,
        "meta_mean_anomaly": 280.8197,
        "meta_ephemeris_type": 0,
        "meta_classification_type": "U",
        "meta_norad_cat_id": 37605,
        "meta_element_set_no": 999,
        "meta_rev_at_epoch": 5130,
        "meta_bstar": 0,
        "meta_mean_motion_dot": 8.7e-07,
        "meta_mean_motion_ddot": 0,
        "tle_line1": "1 37605U 11022A   25342.14968289  .00000087  00000+0  00000+0 0  9993",
        "tle_line2": "2 37605   1.6376  84.2376 0008990 181.0863 280.8197  1.00270857 51303"
      },
      "geometry": {
        "type": "Point",
        "coordinates": [
          8.566781092421616,
          -1.5788175735236507
        ]
      }
    },
    {
      "type": "Feature",
      "properties": {
        "norad_id": 37763,
        "name": "BEIDOU-2 IGSO-4 (C09)",
        "group": "gnss",
        "lat": -45.172315280315985,
        "lon": 33.18116301415334,
        "alt_km": 35170.026715271095,
        "timestamp": "2025-12-08T15:42:50.032703+00:00",
        "meta_object_name": "BEIDOU-2 IGSO-4 (C09)",
        "meta_object_id": "2011-038A",
        "meta_epoch": "2025-12-01T12:32:09.960864",
        "meta_mean_motion": 1.00284074,
        "meta_eccentricity": 0.01487808,
        "meta_inclination": 54.5808,
        "meta_ra_of_asc_node": 167.4476,
        "meta_arg_of_pericenter": 230.2031,
        "meta_mean_anomaly": 315.0387,
        "meta_ephemeris_type": 0,
        "meta_classification_type": "U",
        "meta_norad_cat_id": 37763,
        "meta_element_set_no": 999,
        "meta_rev_at_epoch": 5266,
        "meta_bstar": 0,
        "meta_mean_motion_dot": 1.01e-06,
        "meta_mean_motion_ddot": 0,
        "tle_line1": "1 37763U 11038A   25335.52233751  .00000101  00000+0  00000+0 0  9995",
        "tle_line2": "2 37763  54.5808 167.4476 0148780 230.2031 315.0387  1.00284074 52664"
      },
      "geometry": {
        "type": "Point",
        "coordinates": [
          33.18116301415334,
          -45.172315280315985
        ]
      }
    }
  ]
}